*******************************************************************************
Ephemeris / WWW_USER Wed Mar 27 21:56:16 2019 Pasadena, USA      / Horizons    
*******************************************************************************
Target body name: Parker Solar Probe (spacecraft) (-96) {source: spp_nom_20180812_2025083}
Center body name: Earth (399)                     {source: DE431mx}
Center-site name: Green Bank (GBT)
*******************************************************************************
Start time      : A.D. 2019-Mar-28 15:00:00.0000 UT      
Stop  time      : A.D. 2019-Mar-29 03:00:00.0000 UT      
Step-size       : 1 minutes
*******************************************************************************
Target pole/equ : No model available
Target radii    : (unavailable)                                                
Center geodetic : 280.160200,38.4330940,0.8760930 {E-lon(deg),Lat(deg),Alt(km)}
Center cylindric: 280.160200,5003.37558,3943.7589 {E-lon(deg),Dxy(km),Dz(km)}
Center pole/equ : High-precision EOP model        {East-longitude positive}
Center radii    : 6378.1 x 6378.1 x 6356.8 km     {Equator, meridian, pole}    
Target primary  : Earth
Vis. interferer : MOON (R_eq= 1737.400) km        {source: DE431mx}
Rel. light bend : Sun, EARTH                      {source: DE431mx}
Rel. lght bnd GM: 1.3271E+11, 3.9860E+05 km^3/s^2                              
Atmos refraction: NO (AIRLESS)
RA format       : HMS
Time format     : CAL 
RTS-only print  : NO       
EOP file        : eop.190327.p190618                                           
EOP coverage    : DATA-BASED 1962-JAN-20 TO 2019-MAR-27. PREDICTS-> 2019-JUN-17
Units conversion: 1 au= 149597870.700 km, c= 299792.458 km/s, 1 day= 86400.0 s 
Table cut-offs 1: Elevation (-90.0deg=NO ),Airmass (>38.000=NO), Daylight (NO )
Table cut-offs 2: Solar elongation (  0.0,180.0=NO ),Local Hour Angle( 0.0=NO )
Table cut-offs 3: RA/DEC angular rate (     0.0=NO )                           
*******************************************************************************************************************
 Date__(UT)__HR:MN     R.A._(ICRF/J2000.0)_DEC dRA*cosD d(DEC)/dt            delta      deldot    S-O-T /r    S-T-O
*******************************************************************************************************************
$$SOE
 2019-Mar-29 02:55     01 07 45.41 +06 45 21.4 178.0784  88.89353 1.19297800573372 -60.6828407  10.3312 /T  40.3211
 2019-Mar-29 02:56     01 07 45.60 +06 45 22.9 178.0792  88.89318 1.19295366109704 -60.6870502  10.3314 /T  40.3249
 2019-Mar-29 02:57     01 07 45.80 +06 45 24.4 178.0799  88.89284 1.19292931477022 -60.6912649  10.3316 /T  40.3287
 2019-Mar-29 02:58     01 07 46.00 +06 45 25.9 178.0806  88.89249 1.19290496675121 -60.6954848  10.3318 /T  40.3325
 2019-Mar-29 02:59     01 07 46.20 +06 45 27.4 178.0813  88.89215 1.19288061703796 -60.6997100  10.3321 /T  40.3364
 2019-Mar-29 03:00     01 07 46.40 +06 45 28.8 178.0820  88.89181 1.19285626562829 -60.7039403  10.3323 /T  40.3402
